[Satellite]
VERSION=1.1
NAME=RADUGA-1 8
NICKNAME=RADUGA-1 8
TLE1=1 34264U 09010A   17185.99490417 -.00000324  00000-0  00000-0 0  9994
TLE2=2 34264   5.7741  68.1704 0009768 300.7689  55.6805  0.99831279 30532
